[{"OBJECT_NAME":"KUZGTU 1 (RS47S)","OBJECT_ID":"2023-091AV","EPOCH":"2026-03-09T22:22:51.965760","MEAN_MOTION":15.27481352,"ECCENTRICITY":0.0012896,"INCLINATION":97.5178,"RA_OF_ASC_NODE":132.5224,"ARG_OF_PERICENTER":89.3666,"MEAN_ANOMALY":270.9051,"EPHEMERIS_TYPE":0,"CLASSIFICATION_TYPE":"U","NORAD_CAT_ID":57217,"ELEMENT_SET_NO":999,"REV_AT_EPOCH":14921,"BSTAR":0.00057711473,"MEAN_MOTION_DOT":0.00015496,"MEAN_MOTION_DDOT":0},{"OBJECT_NAME":"STARLINK-30155","OBJECT_ID":"2023-107U","EPOCH":"2026-03-09T04:18:15.875424","MEAN_MOTION":15.26734779,"ECCENTRICITY":0.00025937,"INCLINATION":43.0046,"RA_OF_ASC_NODE":338.5844,"ARG_OF_PERICENTER":269.8096,"MEAN_ANOMALY":90.2458,"EPHEMERIS_TYPE":0,"CLASSIFICATION_TYPE":"U","NORAD_CAT_ID":57475,"ELEMENT_SET_NO":999,"REV_AT_EPOCH":14507,"BSTAR":2.4290445e-5,"MEAN_MOTION_DOT":3.91e-6,"MEAN_MOTION_DDOT":0}]
